start=new Date('2021-10-09T00:00:00.000Z').valueOf();
sats=[{"SEMIMAJOR_AXIS":"6925.400","FILE":"3152020","MEAN_ELEMENT_THEORY":"SGP4","PERIAPSIS":"545.842","RCS_SIZE":"LARGE","TLE_LINE1":"1 47367U 21005U   21281.79551903 -.00001935  00000-0 -11105-3 0  9999","SITE":"AFETR","TLE_LINE2":"2 47367  53.0542 102.1930 0002056  93.0160 267.1064 15.06383082 39943","RA_OF_ASC_NODE":"102.1930","MEAN_MOTION":"15.06383082","COUNTRY_CODE":"US","OBJECT_TYPE":"PAYLOAD","EPOCH":"2021-10-08T19:05:32.844192","DECAY_DATE":null,"INCLINATION":"53.0542","GP_ID":"186595944","LAUNCH_DATE":"2021-01-20","MEAN_MOTION_DDOT":"0.0000000000000","REV_AT_EPOCH":"3994","NORAD_CAT_ID":"47367","REF_FRAME":"TEME","OBJECT_NAME":"STARLINK-2082","APOAPSIS":"548.689","PERIOD":"95.593","ARG_OF_PERICENTER":"93.0160","MEAN_MOTION_DOT":"-0.00001935","CLASSIFICATION_TYPE":"U","OBJECT_ID":"2021-005U","BSTAR":"-0.00011105000000","ECCENTRICITY":"0.00020560","ELEMENT_SET_NO":"999","TIME_SYSTEM":"UTC","MEAN_ANOMALY":"267.1064","EPHEMERIS_TYPE":"0","CENTER_NAME":"EARTH"},{"APOAPSIS":"548.315","OBJECT_NAME":"STARLINK-2084","REF_FRAME":"TEME","NORAD_CAT_ID":"47368","MEAN_MOTION_DOT":"-0.00000597","PERIOD":"95.592","ARG_OF_PERICENTER":"88.5694","CLASSIFICATION_TYPE":"U","ECCENTRICITY":"0.00015760","BSTAR":"-0.00002118500000","OBJECT_ID":"2021-005V","TIME_SYSTEM":"UTC","ELEMENT_SET_NO":"999","MEAN_ANOMALY":"271.5475","CENTER_NAME":"EARTH","EPHEMERIS_TYPE":"0","SEMIMAJOR_AXIS":"6925.359","MEAN_ELEMENT_THEORY":"SGP4","FILE":"3152020","SITE":"AFETR","TLE_LINE2":"2 47368  53.0535 102.5173 0001576  88.5694 271.5475 15.06396702 39933","TLE_LINE1":"1 47368U 21005V   21281.72178574 -.00000597  00000-0 -21185-4 0  9995","RCS_SIZE":"LARGE","PERIAPSIS":"546.132","COUNTRY_CODE":"US","RA_OF_ASC_NODE":"102.5173","MEAN_MOTION":"15.06396702","OBJECT_TYPE":"PAYLOAD","GP_ID":"186596195","INCLINATION":"53.0535","DECAY_DATE":null,"EPOCH":"2021-10-08T17:19:22.287936","REV_AT_EPOCH":"3993","MEAN_MOTION_DDOT":"0.0000000000000","LAUNCH_DATE":"2021-01-20"},{"PERIAPSIS":"546.024","RCS_SIZE":"LARGE","TLE_LINE1":"1 47369U 21005W   21281.72733336  .00003129  00000-0  22888-3 0  9991","SITE":"AFETR","TLE_LINE2":"2 47369  53.0561  82.4919 0001749  91.8246 268.2943 15.06393048 40215","MEAN_ELEMENT_THEORY":"SGP4","FILE":"3152020","SEMIMAJOR_AXIS":"6925.370","LAUNCH_DATE":"2021-01-20","MEAN_MOTION_DDOT":"0.0000000000000","REV_AT_EPOCH":"4021","EPOCH":"2021-10-08T17:27:21.602304","DECAY_DATE":null,"INCLINATION":"53.0561","GP_ID":"186596442","OBJECT_TYPE":"PAYLOAD","RA_OF_ASC_NODE":"82.4919","MEAN_MOTION":"15.06393048","COUNTRY_CODE":"US","OBJECT_ID":"2021-005W","BSTAR":"0.00022888000000","ECCENTRICITY":"0.00017490","CLASSIFICATION_TYPE":"U","PERIOD":"95.593","ARG_OF_PERICENTER":"91.8246","MEAN_MOTION_DOT":"0.00003129","NORAD_CAT_ID":"47369","REF_FRAME":"TEME","OBJECT_NAME":"STARLINK-2085","APOAPSIS":"548.446","EPHEMERIS_TYPE":"0","CENTER_NAME":"EARTH","MEAN_ANOMALY":"268.2943","ELEMENT_SET_NO":"999","TIME_SYSTEM":"UTC"},{"MEAN_MOTION":"15.06392295","RA_OF_ASC_NODE":"62.0445","COUNTRY_CODE":"US","OBJECT_TYPE":"PAYLOAD","DECAY_DATE":null,"EPOCH":"2021-10-08T19:37:22.817280","GP_ID":"186595194","INCLINATION":"53.0648","LAUNCH_DATE":"2021-01-20","REV_AT_EPOCH":"4051","MEAN_MOTION_DDOT":"0.0000000000000","SEMIMAJOR_AXIS":"6925.372","MEAN_ELEMENT_THEORY":"SGP4","FILE":"3152020","TLE_LINE1":"1 47370U 21005X   21281.81762520 -.00001948  00000-0 -11194-3 0  9997","RCS_SIZE":"LARGE","PERIAPSIS":"546.171","SITE":"AFETR","TLE_LINE2":"2 47370  53.0648  62.0445 0001540  92.5808 267.5357 15.06392295 40519","TIME_SYSTEM":"UTC","ELEMENT_SET_NO":"999","MEAN_ANOMALY":"267.5357","CENTER_NAME":"EARTH","EPHEMERIS_TYPE":"0","NORAD_CAT_ID":"47370","REF_FRAME":"TEME","APOAPSIS":"548.304","OBJECT_NAME":"STARLINK-2086","ARG_OF_PERICENTER":"92.5808","PERIOD":"95.593","MEAN_MOTION_DOT":"-0.00001948","CLASSIFICATION_TYPE":"U","OBJECT_ID":"2021-005X","ECCENTRICITY":"0.00015400","BSTAR":"-0.00011194000000"},{"EPHEMERIS_TYPE":"0","CENTER_NAME":"EARTH","MEAN_ANOMALY":"271.3856","ELEMENT_SET_NO":"999","TIME_SYSTEM":"UTC","BSTAR":"0.00009452800000","ECCENTRICITY":"0.00020420","OBJECT_ID":"2021-005Y","CLASSIFICATION_TYPE":"U","MEAN_MOTION_DOT":"0.00001127","ARG_OF_PERICENTER":"88.7367","PERIOD":"95.592","OBJECT_NAME":"STARLINK-2088","APOAPSIS":"548.614","NORAD_CAT_ID":"47371","REF_FRAME":"TEME","MEAN_MOTION_DDOT":"0.0000000000000","REV_AT_EPOCH":"3994","LAUNCH_DATE":"2021-01-20","INCLINATION":"53.0542","GP_ID":"186595444","EPOCH":"2021-10-08T19:16:08.774112","DECAY_DATE":null,"OBJECT_TYPE":"PAYLOAD","COUNTRY_CODE":"US","RA_OF_ASC_NODE":"102.1494","MEAN_MOTION":"15.06404385","TLE_LINE2":"2 47371  53.0542 102.1494 0002042  88.7367 271.3856 15.06404385 39944","SITE":"AFETR","RCS_SIZE":"LARGE","PERIAPSIS":"545.786","TLE_LINE1":"1 47371U 21005Y   21281.80287933  .00001127  00000-0  94528-4 0  9997","FILE":"3152020","MEAN_ELEMENT_THEORY":"SGP4","SEMIMAJOR_AXIS":"6925.335"},{"MEAN_ANOMALY":"269.4936","ELEMENT_SET_NO":"999","TIME_SYSTEM":"UTC","EPHEMERIS_TYPE":"0","CENTER_NAME":"EARTH","PERIOD":"95.592","ARG_OF_PERICENTER":"90.6232","MEAN_MOTION_DOT":"0.00000602","REF_FRAME":"TEME","NORAD_CAT_ID":"47372","OBJECT_NAME":"STARLINK-2089","APOAPSIS":"548.268","OBJECT_ID":"2021-005Z","BSTAR":"0.00005932500000","ECCENTRICITY":"0.00015640","CLASSIFICATION_TYPE":"U","OBJECT_TYPE":"PAYLOAD","RA_OF_ASC_NODE":"97.2947","MEAN_MOTION":"15.06409399","COUNTRY_CODE":"US","LAUNCH_DATE":"2021-01-20","MEAN_MOTION_DDOT":"0.0000000000000","REV_AT_EPOCH":"4000","EPOCH":"2021-10-08T18:25:00.898464","DECAY_DATE":null,"INCLINATION":"53.0548","GP_ID":"186596696","MEAN_ELEMENT_THEORY":"SGP4","FILE":"3152020","SEMIMAJOR_AXIS":"6925.320","RCS_SIZE":"LARGE","PERIAPSIS":"546.102","TLE_LINE1":"1 47372U 21005Z   21281.76737151  .00000602  00000-0  59325-4 0  9998","SITE":"AFETR","TLE_LINE2":"2 47372  53.0548  97.2947 0001564  90.6232 269.4936 15.06409399 40005"},{"NORAD_CAT_ID":"47373","REF_FRAME":"TEME","OBJECT_NAME":"STARLINK-2092","APOAPSIS":"548.406","ARG_OF_PERICENTER":"96.9066","PERIOD":"95.592","MEAN_MOTION_DOT":"0.00000259","CLASSIFICATION_TYPE":"U","OBJECT_ID":"2021-005AA","BSTAR":"0.00003630900000","ECCENTRICITY":"0.00017190","ELEMENT_SET_NO":"999","TIME_SYSTEM":"UTC","MEAN_ANOMALY":"263.2119","EPHEMERIS_TYPE":"0","CENTER_NAME":"EARTH","SEMIMAJOR_AXIS":"6925.351","MEAN_ELEMENT_THEORY":"SGP4","FILE":"3152020","PERIAPSIS":"546.025","RCS_SIZE":"LARGE","TLE_LINE1":"1 47373U 21005AA  21281.79919826  .00000259  00000-0  36309-4 0  9998","SITE":"AFETR","TLE_LINE2":"2 47373  53.0537 102.1608 0001719  96.9066 263.2119 15.06399307 39943","MEAN_MOTION":"15.06399307","RA_OF_ASC_NODE":"102.1608","COUNTRY_CODE":"US","OBJECT_TYPE":"PAYLOAD","EPOCH":"2021-10-08T19:10:50.729664","DECAY_DATE":null,"INCLINATION":"53.0537","GP_ID":"186596943","LAUNCH_DATE":"2021-01-20","MEAN_MOTION_DDOT":"0.0000000000000","REV_AT_EPOCH":"3994"},{"MEAN_MOTION_DOT":"-0.00000893","ARG_OF_PERICENTER":"91.2703","PERIOD":"95.591","OBJECT_NAME":"STARLINK-2093","APOAPSIS":"548.395","REF_FRAME":"TEME","NORAD_CAT_ID":"47374","BSTAR":"-0.00004102000000","ECCENTRICITY":"0.00017610","OBJECT_ID":"2021-005AB","CLASSIFICATION_TYPE":"U","MEAN_ANOMALY":"268.8487","ELEMENT_SET_NO":"999","TIME_SYSTEM":"UTC","EPHEMERIS_TYPE":"0","CENTER_NAME":"EARTH","FILE":"3152020","MEAN_ELEMENT_THEORY":"SGP4","SEMIMAJOR_AXIS":"6925.310","SITE":"AFETR","TLE_LINE2":"2 47374  53.0532 102.1111 0001761  91.2703 268.8487 15.06412442 39946","RCS_SIZE":"LARGE","PERIAPSIS":"545.956","TLE_LINE1":"1 47374U 21005AB  21281.81393309 -.00000893  00000-0 -41020-4 0  9996","OBJECT_TYPE":"PAYLOAD","COUNTRY_CODE":"US","MEAN_MOTION":"15.06412442","RA_OF_ASC_NODE":"102.1111","MEAN_MOTION_DDOT":"0.0000000000000","REV_AT_EPOCH":"3994","LAUNCH_DATE":"2021-01-20","INCLINATION":"53.0532","GP_ID":"186595695","EPOCH":"2021-10-08T19:32:03.818976","DECAY_DATE":null},{"OBJECT_TYPE":"PAYLOAD","RA_OF_ASC_NODE":"102.0513","MEAN_MOTION":"15.06396989","COUNTRY_CODE":"US","LAUNCH_DATE":"2021-01-20","REV_AT_EPOCH":"3994","MEAN_MOTION_DDOT":"0.0000000000000","DECAY_DATE":null,"EPOCH":"2021-10-08T19:47:59.536896","GP_ID":"186595945","INCLINATION":"53.0556","MEAN_ELEMENT_THEORY":"SGP4","FILE":"3152020","SEMIMAJOR_AXIS":"6925.358","TLE_LINE1":"1 47375U 21005AC  21281.82499464 -.00000624  00000-0 -23008-4 0  9995","PERIAPSIS":"545.908","RCS_SIZE":"LARGE","SITE":"AFETR","TLE_LINE2":"2 47375  53.0556 102.0513 0001898  92.2615 267.8591 15.06396989 39944","MEAN_ANOMALY":"267.8591","TIME_SYSTEM":"UTC","ELEMENT_SET_NO":"999","CENTER_NAME":"EARTH","EPHEMERIS_TYPE":"0","PERIOD":"95.592","ARG_OF_PERICENTER":"92.2615","MEAN_MOTION_DOT":"-0.00000624","REF_FRAME":"TEME","NORAD_CAT_ID":"47375","APOAPSIS":"548.537","OBJECT_NAME":"STARLINK-2094","OBJECT_ID":"2021-005AC","ECCENTRICITY":"0.00018980","BSTAR":"-0.00002300800000","CLASSIFICATION_TYPE":"U"},{"ELEMENT_SET_NO":"999","TIME_SYSTEM":"UTC","MEAN_ANOMALY":"271.1578","EPHEMERIS_TYPE":"0","CENTER_NAME":"EARTH","OBJECT_NAME":"STARLINK-2096","APOAPSIS":"548.622","REF_FRAME":"TEME","NORAD_CAT_ID":"47376","MEAN_MOTION_DOT":"0.00001053","ARG_OF_PERICENTER":"88.9646","PERIOD":"95.592","CLASSIFICATION_TYPE":"U","BSTAR":"0.00008960900000","ECCENTRICITY":"0.00020460","OBJECT_ID":"2021-005AD","COUNTRY_CODE":"US","RA_OF_ASC_NODE":"102.0322","MEAN_MOTION":"15.06402619","OBJECT_TYPE":"PAYLOAD","INCLINATION":"53.0552","GP_ID":"186570707","EPOCH":"2021-10-08T19:53:18.226752","DECAY_DATE":null,"MEAN_MOTION_DDOT":"0.0000000000000","REV_AT_EPOCH":"3994","LAUNCH_DATE":"2021-01-20","SEMIMAJOR_AXIS":"6925.341","MEAN_ELEMENT_THEORY":"SGP4","FILE":"3151827","SITE":"AFETR","TLE_LINE2":"2 47376  53.0552 102.0322 0002046  88.9646 271.1578 15.06402619 39942","PERIAPSIS":"545.789","RCS_SIZE":"LARGE","TLE_LINE1":"1 47376U 21005AD  21281.82868318  .00001053  00000-0  89609-4 0  9998"}];
